start=new Date('2022-04-02T00:00:00.000Z').valueOf();
sats=[{"NORAD_CAT_ID":"51997","OBJECT_ID":"2022-025AT","OBJECT_TYPE":"PAYLOAD","FILE":"3383778","PERIOD":"91.532","INCLINATION":"53.2175","MEAN_ELEMENT_THEORY":"SGP4","COUNTRY_CODE":"US","BSTAR":"-0.00068068000000","SEMIMAJOR_AXIS":"6727.861","MEAN_ANOMALY":"247.9320","CLASSIFICATION_TYPE":"U","MEAN_MOTION":"15.73211929","CENTER_NAME":"EARTH","TIME_SYSTEM":"UTC","LAUNCH_DATE":"2022-03-09","TLE_LINE1":"1 51997U 22025AT  22091.91667824 -.00095122  00000-0 -68068-3 0  9991","TLE_LINE2":"2 51997  53.2175  24.1557 0001116 122.3348 247.9320 15.73211929  3697","EPHEMERIS_TYPE":"0","ECCENTRICITY":"0.00011160","ARG_OF_PERICENTER":"122.3348","RA_OF_ASC_NODE":"24.1557","EPOCH":"2022-04-01T22:00:00.999936","REV_AT_EPOCH":"369","MEAN_MOTION_DOT":"-0.00095122","PERIAPSIS":"348.975","GP_ID":"200266834","OBJECT_NAME":"STARLINK-3589","SITE":"AFETR","MEAN_MOTION_DDOT":"0.0000000000000","APOAPSIS":"350.477","REF_FRAME":"TEME","DECAY_DATE":null,"RCS_SIZE":"LARGE","ELEMENT_SET_NO":"999"},{"NORAD_CAT_ID":"51998","OBJECT_ID":"2022-025AU","FILE":"3383778","OBJECT_TYPE":"PAYLOAD","PERIOD":"91.532","INCLINATION":"53.2181","MEAN_ELEMENT_THEORY":"SGP4","BSTAR":"-0.00072901000000","COUNTRY_CODE":"US","SEMIMAJOR_AXIS":"6727.855","MEAN_ANOMALY":"262.0949","CLASSIFICATION_TYPE":"U","TIME_SYSTEM":"UTC","MEAN_MOTION":"15.73213940","CENTER_NAME":"EARTH","TLE_LINE1":"1 51998U 22025AU  22091.91667824 -.00101761  00000-0 -72901-3 0  9990","LAUNCH_DATE":"2022-03-09","TLE_LINE2":"2 51998  53.2181  24.1503 0001170 111.2947 262.0949 15.73213940  3698","ARG_OF_PERICENTER":"111.2947","EPHEMERIS_TYPE":"0","ECCENTRICITY":"0.00011700","REV_AT_EPOCH":"369","RA_OF_ASC_NODE":"24.1503","EPOCH":"2022-04-01T22:00:00.999936","MEAN_MOTION_DOT":"-0.00101761","PERIAPSIS":"348.933","GP_ID":"200267053","OBJECT_NAME":"STARLINK-3618","SITE":"AFETR","MEAN_MOTION_DDOT":"0.0000000000000","APOAPSIS":"350.508","REF_FRAME":"TEME","DECAY_DATE":null,"ELEMENT_SET_NO":"999","RCS_SIZE":"LARGE"},{"TLE_LINE1":"1 51999U 22025AV  22091.91667824 -.00078036  00000-0 -55646-3 0  9996","LAUNCH_DATE":"2022-03-09","TIME_SYSTEM":"UTC","MEAN_MOTION":"15.73212827","CENTER_NAME":"EARTH","TLE_LINE2":"2 51999  53.2177  24.1508 0001232 108.1152 264.5959 15.73212827  3692","SEMIMAJOR_AXIS":"6727.859","CLASSIFICATION_TYPE":"U","MEAN_ANOMALY":"264.5959","INCLINATION":"53.2177","BSTAR":"-0.00055646000000","COUNTRY_CODE":"US","MEAN_ELEMENT_THEORY":"SGP4","OBJECT_ID":"2022-025AV","NORAD_CAT_ID":"51999","PERIOD":"91.532","FILE":"3383778","OBJECT_TYPE":"PAYLOAD","ELEMENT_SET_NO":"999","RCS_SIZE":"LARGE","DECAY_DATE":null,"APOAPSIS":"350.552","REF_FRAME":"TEME","OBJECT_NAME":"STARLINK-3667","GP_ID":"200267341","MEAN_MOTION_DDOT":"0.0000000000000","SITE":"AFETR","REV_AT_EPOCH":"369","EPOCH":"2022-04-01T22:00:00.999936","RA_OF_ASC_NODE":"24.1508","ARG_OF_PERICENTER":"108.1152","ECCENTRICITY":"0.00012320","EPHEMERIS_TYPE":"0","PERIAPSIS":"348.895","MEAN_MOTION_DOT":"-0.00078036"},{"MEAN_ELEMENT_THEORY":"SGP4","BSTAR":"-0.00082650000000","COUNTRY_CODE":"US","INCLINATION":"53.2184","OBJECT_TYPE":"PAYLOAD","FILE":"3383778","PERIOD":"91.532","NORAD_CAT_ID":"52000","OBJECT_ID":"2022-025AW","TLE_LINE2":"2 52000  53.2184  24.1479 0001268 121.6922 252.9560 15.73224452  3691","CENTER_NAME":"EARTH","MEAN_MOTION":"15.73224452","TIME_SYSTEM":"UTC","LAUNCH_DATE":"2022-03-09","TLE_LINE1":"1 52000U 22025AW  22091.91667824 -.00115159  00000-0 -82650-3 0  9993","MEAN_ANOMALY":"252.9560","CLASSIFICATION_TYPE":"U","SEMIMAJOR_AXIS":"6727.825","SITE":"AFETR","MEAN_MOTION_DDOT":"0.0000000000000","GP_ID":"200266629","OBJECT_NAME":"STARLINK-3653","MEAN_MOTION_DOT":"-0.00115159","PERIAPSIS":"348.837","EPHEMERIS_TYPE":"0","ECCENTRICITY":"0.00012680","ARG_OF_PERICENTER":"121.6922","EPOCH":"2022-04-01T22:00:00.999936","RA_OF_ASC_NODE":"24.1479","REV_AT_EPOCH":"369","DECAY_DATE":null,"RCS_SIZE":"LARGE","ELEMENT_SET_NO":"999","REF_FRAME":"TEME","APOAPSIS":"350.544"},{"MEAN_ANOMALY":"257.9989","CLASSIFICATION_TYPE":"U","SEMIMAJOR_AXIS":"6727.707","TLE_LINE2":"2 52001  53.2175  24.1480 0001215 116.0458 257.9989 15.73266037  3693","TIME_SYSTEM":"UTC","CENTER_NAME":"EARTH","MEAN_MOTION":"15.73266037","TLE_LINE1":"1 52001U 22025AX  22091.91667824 -.00086913  00000-0 -61950-3 0  9999","LAUNCH_DATE":"2022-03-09","FILE":"3383778","OBJECT_TYPE":"PAYLOAD","PERIOD":"91.529","NORAD_CAT_ID":"52001","OBJECT_ID":"2022-025AX","MEAN_ELEMENT_THEORY":"SGP4","BSTAR":"-0.00061950000000","COUNTRY_CODE":"US","INCLINATION":"53.2175","REF_FRAME":"TEME","APOAPSIS":"350.389","DECAY_DATE":null,"ELEMENT_SET_NO":"999","RCS_SIZE":"LARGE","MEAN_MOTION_DOT":"-0.00086913","PERIAPSIS":"348.754","ARG_OF_PERICENTER":"116.0458","EPHEMERIS_TYPE":"0","ECCENTRICITY":"0.00012150","REV_AT_EPOCH":"369","EPOCH":"2022-04-01T22:00:00.999936","RA_OF_ASC_NODE":"24.1480","SITE":"AFETR","MEAN_MOTION_DDOT":"0.0000000000000","OBJECT_NAME":"STARLINK-3659","GP_ID":"200267155"},{"MEAN_MOTION_DDOT":"0.0000000000000","SITE":"AFETR","GP_ID":"200266732","OBJECT_NAME":"STARLINK-3668","MEAN_MOTION_DOT":"-0.00081626","PERIAPSIS":"348.923","EPOCH":"2022-04-01T22:00:00.999936","RA_OF_ASC_NODE":"24.1466","REV_AT_EPOCH":"369","EPHEMERIS_TYPE":"0","ECCENTRICITY":"0.00012180","ARG_OF_PERICENTER":"117.5485","RCS_SIZE":"LARGE","ELEMENT_SET_NO":"999","DECAY_DATE":null,"REF_FRAME":"TEME","APOAPSIS":"350.562","BSTAR":"-0.00058268000000","COUNTRY_CODE":"US","MEAN_ELEMENT_THEORY":"SGP4","INCLINATION":"53.2180","PERIOD":"91.533","OBJECT_TYPE":"PAYLOAD","FILE":"3383778","OBJECT_ID":"2022-025AY","NORAD_CAT_ID":"52002","TLE_LINE2":"2 52002  53.2180  24.1466 0001218 117.5485 257.7841 15.73206178  3698","LAUNCH_DATE":"2022-03-09","TLE_LINE1":"1 52002U 22025AY  22091.91667824 -.00081626  00000-0 -58268-3 0  9994","MEAN_MOTION":"15.73206178","CENTER_NAME":"EARTH","TIME_SYSTEM":"UTC","CLASSIFICATION_TYPE":"U","MEAN_ANOMALY":"257.7841","SEMIMAJOR_AXIS":"6727.878"},{"OBJECT_ID":"2022-025AZ","NORAD_CAT_ID":"52003","OBJECT_TYPE":"PAYLOAD","FILE":"3383778","PERIOD":"91.531","INCLINATION":"53.2192","MEAN_ELEMENT_THEORY":"SGP4","BSTAR":"-0.00062409000000","COUNTRY_CODE":"US","SEMIMAJOR_AXIS":"6727.782","MEAN_ANOMALY":"267.0117","CLASSIFICATION_TYPE":"U","CENTER_NAME":"EARTH","MEAN_MOTION":"15.73239841","TIME_SYSTEM":"UTC","LAUNCH_DATE":"2022-03-09","TLE_LINE1":"1 52003U 22025AZ  22091.91667824 -.00087447  00000-0 -62409-3 0  9994","TLE_LINE2":"2 52003  53.2192  24.1447 0001023 108.9000 267.0117 15.73239841  3695","EPHEMERIS_TYPE":"0","ECCENTRICITY":"0.00010230","ARG_OF_PERICENTER":"108.9000","EPOCH":"2022-04-01T22:00:00.999936","RA_OF_ASC_NODE":"24.1447","REV_AT_EPOCH":"369","PERIAPSIS":"348.958","MEAN_MOTION_DOT":"-0.00087447","OBJECT_NAME":"STARLINK-3654","GP_ID":"200267251","SITE":"AFETR","MEAN_MOTION_DDOT":"0.0000000000000","APOAPSIS":"350.335","REF_FRAME":"TEME","DECAY_DATE":null,"RCS_SIZE":"LARGE","ELEMENT_SET_NO":"999"},{"REF_FRAME":"TEME","APOAPSIS":"304.855","ELEMENT_SET_NO":"999","RCS_SIZE":"LARGE","DECAY_DATE":null,"PERIAPSIS":"293.625","MEAN_MOTION_DOT":"0.00284410","REV_AT_EPOCH":"291","RA_OF_ASC_NODE":"75.1559","EPOCH":"2022-04-01T22:00:00.999936","ARG_OF_PERICENTER":"329.8094","EPHEMERIS_TYPE":"0","ECCENTRICITY":"0.00084090","MEAN_MOTION_DDOT":"0.0000411500000","SITE":"AFETR","GP_ID":"200266639","OBJECT_NAME":"STARLINK-3537","CLASSIFICATION_TYPE":"U","MEAN_ANOMALY":"89.8962","SEMIMAJOR_AXIS":"6677.375","TLE_LINE2":"2 52088  53.2159  75.1559 0008409 329.8094  89.8962 15.91087819  2911","TLE_LINE1":"1 52088U 22029A   22091.91667824  .00284410  41150-4  88482-3 0  9992","LAUNCH_DATE":"2022-03-19","TIME_SYSTEM":"UTC","MEAN_MOTION":"15.91087819","CENTER_NAME":"EARTH","PERIOD":"90.504","FILE":"3383778","OBJECT_TYPE":"PAYLOAD","OBJECT_ID":"2022-029A","NORAD_CAT_ID":"52088","COUNTRY_CODE":"US","BSTAR":"0.00088482000000","MEAN_ELEMENT_THEORY":"SGP4","INCLINATION":"53.2159"},{"TLE_LINE1":"1 52089U 22029B   22091.91667824 -.00011609  00000-0 -78394-4 0  9990","LAUNCH_DATE":"2022-03-19","TIME_SYSTEM":"UTC","CENTER_NAME":"EARTH","MEAN_MOTION":"15.73205484","TLE_LINE2":"2 52089  53.2169  76.1938 0001186  82.3810 191.2229 15.73205484  2900","SEMIMAJOR_AXIS":"6727.880","CLASSIFICATION_TYPE":"U","MEAN_ANOMALY":"191.2229","INCLINATION":"53.2169","COUNTRY_CODE":"US","BSTAR":"-0.00007839400000","MEAN_ELEMENT_THEORY":"SGP4","OBJECT_ID":"2022-029B","NORAD_CAT_ID":"52089","PERIOD":"91.533","FILE":"3383778","OBJECT_TYPE":"PAYLOAD","ELEMENT_SET_NO":"999","RCS_SIZE":"LARGE","DECAY_DATE":null,"APOAPSIS":"350.542","REF_FRAME":"TEME","OBJECT_NAME":"STARLINK-3722","GP_ID":"200267165","MEAN_MOTION_DDOT":"0.0000000000000","SITE":"AFETR","REV_AT_EPOCH":"290","EPOCH":"2022-04-01T22:00:00.999936","RA_OF_ASC_NODE":"76.1938","ARG_OF_PERICENTER":"82.3810","ECCENTRICITY":"0.00011860","EPHEMERIS_TYPE":"0","MEAN_MOTION_DOT":"-0.00011609","PERIAPSIS":"348.947"},{"SITE":"AFETR","MEAN_MOTION_DDOT":"0.0000000000000","GP_ID":"200266742","OBJECT_NAME":"STARLINK-3712","MEAN_MOTION_DOT":"-0.00074472","PERIAPSIS":"348.811","EPHEMERIS_TYPE":"0","ECCENTRICITY":"0.00013920","ARG_OF_PERICENTER":"70.5361","RA_OF_ASC_NODE":"76.1908","EPOCH":"2022-04-01T22:00:00.999936","REV_AT_EPOCH":"294","DECAY_DATE":null,"RCS_SIZE":"LARGE","ELEMENT_SET_NO":"999","REF_FRAME":"TEME","APOAPSIS":"350.684","MEAN_ELEMENT_THEORY":"SGP4","BSTAR":"-0.00053080000000","COUNTRY_CODE":"US","INCLINATION":"53.2171","OBJECT_TYPE":"PAYLOAD","FILE":"3383778","PERIOD":"91.533","NORAD_CAT_ID":"52090","OBJECT_ID":"2022-029C","TLE_LINE2":"2 52090  53.2171  76.1908 0001392  70.5361 204.8706 15.73204303  2945","CENTER_NAME":"EARTH","MEAN_MOTION":"15.73204303","TIME_SYSTEM":"UTC","LAUNCH_DATE":"2022-03-19","TLE_LINE1":"1 52090U 22029C   22091.91667824 -.00074472  00000-0 -53080-3 0  9993","MEAN_ANOMALY":"204.8706","CLASSIFICATION_TYPE":"U","SEMIMAJOR_AXIS":"6727.883"}];
